YAOGAN-30 07A           
1 45460U 20021A   26068.55604639  .00004701  00000+0  35264-3 0  9998
2 45460  34.9941  97.9026 0004392 231.7665 128.2648 15.02093562325567
STARLINK-5964           
1 56009U 23042Z   26068.01756507 -.00017559  00000+0 -12852-2 0  9992
2 56009  43.0047  59.3853 0001576 249.2966 110.7707 15.02616862162818
